[{"OBJECT_NAME":"STARLINK-32499","OBJECT_ID":"2024-210A","EPOCH":"2026-03-08T09:00:46.484064","MEAN_MOTION":15.27620371,"ECCENTRICITY":0.00030926,"INCLINATION":43.0084,"RA_OF_ASC_NODE":186.8514,"ARG_OF_PERICENTER":269.5015,"MEAN_ANOMALY":90.5482,"EPHEMERIS_TYPE":0,"CLASSIFICATION_TYPE":"U","NORAD_CAT_ID":61959,"ELEMENT_SET_NO":999,"REV_AT_EPOCH":7472,"BSTAR":0.0013881409,"MEAN_MOTION_DOT":0.00038184,"MEAN_MOTION_DDOT":0},{"OBJECT_NAME":"TEVEL2-1","OBJECT_ID":"2025-052H","EPOCH":"2026-03-09T15:32:51.927072","MEAN_MOTION":15.30341923,"ECCENTRICITY":0.0004767,"INCLINATION":97.3991,"RA_OF_ASC_NODE":324.7682,"ARG_OF_PERICENTER":104.8919,"MEAN_ANOMALY":255.2849,"EPHEMERIS_TYPE":0,"CLASSIFICATION_TYPE":"U","NORAD_CAT_ID":63217,"ELEMENT_SET_NO":999,"REV_AT_EPOCH":5485,"BSTAR":0.000706,"MEAN_MOTION_DOT":0.00020683,"MEAN_MOTION_DDOT":0}]
